[{"OBJECT_NAME":"STARLINK-32503","OBJECT_ID":"2024-224U","EPOCH":"2026-03-09T07:03:35.560512","MEAN_MOTION":15.2758405,"ECCENTRICITY":2.971e-5,"INCLINATION":42.9915,"RA_OF_ASC_NODE":167.7568,"ARG_OF_PERICENTER":31.6864,"MEAN_ANOMALY":328.4006,"EPHEMERIS_TYPE":0,"CLASSIFICATION_TYPE":"U","NORAD_CAT_ID":62157,"ELEMENT_SET_NO":999,"REV_AT_EPOCH":7190,"BSTAR":0.00088870768,"MEAN_MOTION_DOT":0.00024277,"MEAN_MOTION_DDOT":0},{"OBJECT_NAME":"TROLL","OBJECT_ID":"2025-009BB","EPOCH":"2026-03-09T05:24:19.835712","MEAN_MOTION":15.28164315,"ECCENTRICITY":0.00018165,"INCLINATION":97.3932,"RA_OF_ASC_NODE":150.7169,"ARG_OF_PERICENTER":59.185,"MEAN_ANOMALY":300.9568,"EPHEMERIS_TYPE":0,"CLASSIFICATION_TYPE":"U","NORAD_CAT_ID":62658,"ELEMENT_SET_NO":999,"REV_AT_EPOCH":11817,"BSTAR":0.00048220305,"MEAN_MOTION_DOT":0.00013174,"MEAN_MOTION_DDOT":0}]
