STARLINK-32503          
1 62157U 24224U   26068.29416158  .00024277  00000+0  88871-3 0  9999
2 62157  42.9915 167.7568 0000297  31.6864 328.4006 15.27584050 71906
TROLL                   
1 62658U 25009BB  26068.22522958  .00013174  00000+0  48220-3 0  9994
2 62658  97.3932 150.7169 0001816  59.1850 300.9568 15.28164315118170
